STARLINK-36637          
1 67633U 26020S   26048.77353043  .00179338  00000+0  10790-2 0  9996
2 67633  42.9968 263.1394 0001871 279.2853  80.7805 15.76410552  2945
STARLINK-36617          
1 67634U 26020T   26048.74809770  .00314182  00000+0  14426-2 0  9995
2 67634  42.9974 262.9328 0002238 302.8878  57.1778 15.81992444  2943
STARLINK-36627          
1 67635U 26020U   26048.64023804  .00460847  00000+0  26558-2 0  9990
2 67635  42.9965 263.8556 0002715 238.3601 121.7004 15.76588621  2924
STARLINK-36624          
1 67636U 26020V   26048.81074355 -.00836489  00000+0 -52104-2 0  9994
2 67636  42.9973 262.5430 0002753 273.1101  86.9455 15.78201542  2956
STARLINK-36610          
1 67637U 26020W   26048.64243088  .00457100  00000+0  26368-2 0  9997
2 67637  42.9969 263.8738 0003166 255.1809 104.8710 15.76576261  2923
STARLINK-36599          
1 67638U 26020X   26048.04947015  .00251318  00000+0  11571-2 0  9996
2 67638  42.9969 267.1539 0002065 245.8602 114.2054 15.82100528  2836
STARLINK-36595          
1 67639U 26020Y   26048.04868222  .00315148  00000+0  14380-2 0  9992
2 67639  42.9963 267.1482 0002021 289.7349  70.3305 15.82125720  2837
STARLINK-36570          
1 67640U 26020Z   26048.63586041  .00458538  00000+0  26443-2 0  9999
2 67640  42.9967 263.8200 0002492 270.1840  89.8744 15.76579799  2920
STARLINK-36514          
1 67641U 26020AA  26047.98325419  .00104594  00000+0  49143-3 0  9990
2 67641  42.9960 267.5163 0001841 261.8111  98.2552 15.82095372  2825
STARLINK-36556          
1 67642U 26020AB  26048.83335647  .00063809  00000+0  39218-3 0  9995
2 67642  42.9976 262.4663 0001733 280.3190 184.0595 15.76349116  4199
STARLINK-36533          
1 67643U 26020AC  26048.00444221  .00056776  00000+0  34807-3 0  9998
2 67643  42.9967 267.6878 0002587 274.6350  85.4224 15.76444774  2824
STARLINK-36623          
1 67644U 26020AD  26048.63148178  .00462617  00000+0  26669-2 0  9991
2 67644  42.9970 263.7816 0002456 265.5632  94.4957 15.76575875  2926
