CCSDS_OMM_VERS = 2.0
CREATION_DATE  = 
ORIGINATOR     = 

OBJECT_NAME    = STARLINK-36637
OBJECT_ID      = 2026-020S
CENTER_NAME    = EARTH
REF_FRAME      = TEME
TIME_SYSTEM    = UTC
MEAN_ELEMENT_THEORY = SGP/SGP4

EPOCH          = 2026-02-17T18:33:53.029152
MEAN_MOTION    = 15.76410552
ECCENTRICITY   = .0001871
INCLINATION    = 42.9968
RA_OF_ASC_NODE = 263.1394
ARG_OF_PERICENTER = 279.2853
MEAN_ANOMALY   = 80.7805

EPHEMERIS_TYPE = 0
CLASSIFICATION_TYPE = U
NORAD_CAT_ID   = 67633
ELEMENT_SET_NO = 999
REV_AT_EPOCH   = 294
BSTAR          = .1079E-2
MEAN_MOTION_DOT = .179338E-2
MEAN_MOTION_DDOT = 0

CCSDS_OMM_VERS = 2.0
CREATION_DATE  = 
ORIGINATOR     = 

OBJECT_NAME    = STARLINK-36617
OBJECT_ID      = 2026-020T
CENTER_NAME    = EARTH
REF_FRAME      = TEME
TIME_SYSTEM    = UTC
MEAN_ELEMENT_THEORY = SGP/SGP4

EPOCH          = 2026-02-17T17:57:15.641280
MEAN_MOTION    = 15.81992444
ECCENTRICITY   = .0002238
INCLINATION    = 42.9974
RA_OF_ASC_NODE = 262.9328
ARG_OF_PERICENTER = 302.8878
MEAN_ANOMALY   = 57.1778

EPHEMERIS_TYPE = 0
CLASSIFICATION_TYPE = U
NORAD_CAT_ID   = 67634
ELEMENT_SET_NO = 999
REV_AT_EPOCH   = 294
BSTAR          = .14426E-2
MEAN_MOTION_DOT = .314182E-2
MEAN_MOTION_DDOT = 0

CCSDS_OMM_VERS = 2.0
CREATION_DATE  = 
ORIGINATOR     = 

OBJECT_NAME    = STARLINK-36627
OBJECT_ID      = 2026-020U
CENTER_NAME    = EARTH
REF_FRAME      = TEME
TIME_SYSTEM    = UTC
MEAN_ELEMENT_THEORY = SGP/SGP4

EPOCH          = 2026-02-17T15:21:56.566656
MEAN_MOTION    = 15.76588621
ECCENTRICITY   = .0002715
INCLINATION    = 42.9965
RA_OF_ASC_NODE = 263.8556
ARG_OF_PERICENTER = 238.3601
MEAN_ANOMALY   = 121.7004

EPHEMERIS_TYPE = 0
CLASSIFICATION_TYPE = U
NORAD_CAT_ID   = 67635
ELEMENT_SET_NO = 999
REV_AT_EPOCH   = 292
BSTAR          = .26558E-2
MEAN_MOTION_DOT = .460847E-2
MEAN_MOTION_DDOT = 0

CCSDS_OMM_VERS = 2.0
CREATION_DATE  = 
ORIGINATOR     = 

OBJECT_NAME    = STARLINK-36624
OBJECT_ID      = 2026-020V
CENTER_NAME    = EARTH
REF_FRAME      = TEME
TIME_SYSTEM    = UTC
MEAN_ELEMENT_THEORY = SGP/SGP4

EPOCH          = 2026-02-17T19:27:28.242720
MEAN_MOTION    = 15.78201542
ECCENTRICITY   = .0002753
INCLINATION    = 42.9973
RA_OF_ASC_NODE = 262.5430
ARG_OF_PERICENTER = 273.1101
MEAN_ANOMALY   = 86.9455

EPHEMERIS_TYPE = 0
CLASSIFICATION_TYPE = U
NORAD_CAT_ID   = 67636
ELEMENT_SET_NO = 999
REV_AT_EPOCH   = 295
BSTAR          = -.52104E-2
MEAN_MOTION_DOT = -.836489E-2
MEAN_MOTION_DDOT = 0

CCSDS_OMM_VERS = 2.0
CREATION_DATE  = 
ORIGINATOR     = 

OBJECT_NAME    = STARLINK-36610
OBJECT_ID      = 2026-020W
CENTER_NAME    = EARTH
REF_FRAME      = TEME
TIME_SYSTEM    = UTC
MEAN_ELEMENT_THEORY = SGP/SGP4

EPOCH          = 2026-02-17T15:25:06.028032
MEAN_MOTION    = 15.76576261
ECCENTRICITY   = .0003166
INCLINATION    = 42.9969
RA_OF_ASC_NODE = 263.8738
ARG_OF_PERICENTER = 255.1809
MEAN_ANOMALY   = 104.8710

EPHEMERIS_TYPE = 0
CLASSIFICATION_TYPE = U
NORAD_CAT_ID   = 67637
ELEMENT_SET_NO = 999
REV_AT_EPOCH   = 292
BSTAR          = .26368E-2
MEAN_MOTION_DOT = .4571E-2
MEAN_MOTION_DDOT = 0

CCSDS_OMM_VERS = 2.0
CREATION_DATE  = 
ORIGINATOR     = 

OBJECT_NAME    = STARLINK-36599
OBJECT_ID      = 2026-020X
CENTER_NAME    = EARTH
REF_FRAME      = TEME
TIME_SYSTEM    = UTC
MEAN_ELEMENT_THEORY = SGP/SGP4

EPOCH          = 2026-02-17T01:11:14.220960
MEAN_MOTION    = 15.82100528
ECCENTRICITY   = .00020654
INCLINATION    = 42.9969
RA_OF_ASC_NODE = 267.1539
ARG_OF_PERICENTER = 245.8602
MEAN_ANOMALY   = 114.2054

EPHEMERIS_TYPE = 0
CLASSIFICATION_TYPE = U
NORAD_CAT_ID   = 67638
ELEMENT_SET_NO = 999
REV_AT_EPOCH   = 283
BSTAR          = .11571343E-2
MEAN_MOTION_DOT = .251318E-2
MEAN_MOTION_DDOT = 0

CCSDS_OMM_VERS = 2.0
CREATION_DATE  = 
ORIGINATOR     = 

OBJECT_NAME    = STARLINK-36595
OBJECT_ID      = 2026-020Y
CENTER_NAME    = EARTH
REF_FRAME      = TEME
TIME_SYSTEM    = UTC
MEAN_ELEMENT_THEORY = SGP/SGP4

EPOCH          = 2026-02-17T01:10:06.143808
MEAN_MOTION    = 15.82125720
ECCENTRICITY   = .00020213
INCLINATION    = 42.9963
RA_OF_ASC_NODE = 267.1482
ARG_OF_PERICENTER = 289.7349
MEAN_ANOMALY   = 70.3305

EPHEMERIS_TYPE = 0
CLASSIFICATION_TYPE = U
NORAD_CAT_ID   = 67639
ELEMENT_SET_NO = 999
REV_AT_EPOCH   = 283
BSTAR          = .14379622E-2
MEAN_MOTION_DOT = .315148E-2
MEAN_MOTION_DDOT = 0

CCSDS_OMM_VERS = 2.0
CREATION_DATE  = 
ORIGINATOR     = 

OBJECT_NAME    = STARLINK-36570
OBJECT_ID      = 2026-020Z
CENTER_NAME    = EARTH
REF_FRAME      = TEME
TIME_SYSTEM    = UTC
MEAN_ELEMENT_THEORY = SGP/SGP4

EPOCH          = 2026-02-17T15:15:38.339424
MEAN_MOTION    = 15.76579799
ECCENTRICITY   = .0002492
INCLINATION    = 42.9967
RA_OF_ASC_NODE = 263.8200
ARG_OF_PERICENTER = 270.1840
MEAN_ANOMALY   = 89.8744

EPHEMERIS_TYPE = 0
CLASSIFICATION_TYPE = U
NORAD_CAT_ID   = 67640
ELEMENT_SET_NO = 999
REV_AT_EPOCH   = 292
BSTAR          = .26443E-2
MEAN_MOTION_DOT = .458538E-2
MEAN_MOTION_DDOT = 0

CCSDS_OMM_VERS = 2.0
CREATION_DATE  = 
ORIGINATOR     = 

OBJECT_NAME    = STARLINK-36514
OBJECT_ID      = 2026-020AA
CENTER_NAME    = EARTH
REF_FRAME      = TEME
TIME_SYSTEM    = UTC
MEAN_ELEMENT_THEORY = SGP/SGP4

EPOCH          = 2026-02-16T23:35:53.162016
MEAN_MOTION    = 15.82095372
ECCENTRICITY   = .0001841
INCLINATION    = 42.9960
RA_OF_ASC_NODE = 267.5163
ARG_OF_PERICENTER = 261.8111
MEAN_ANOMALY   = 98.2552

EPHEMERIS_TYPE = 0
CLASSIFICATION_TYPE = U
NORAD_CAT_ID   = 67641
ELEMENT_SET_NO = 999
REV_AT_EPOCH   = 282
BSTAR          = .49143275E-3
MEAN_MOTION_DOT = .104594E-2
MEAN_MOTION_DDOT = 0

CCSDS_OMM_VERS = 2.0
CREATION_DATE  = 
ORIGINATOR     = 

OBJECT_NAME    = STARLINK-36556
OBJECT_ID      = 2026-020AB
CENTER_NAME    = EARTH
REF_FRAME      = TEME
TIME_SYSTEM    = UTC
MEAN_ELEMENT_THEORY = SGP/SGP4

EPOCH          = 2026-02-17T20:00:01.999008
MEAN_MOTION    = 15.76349116
ECCENTRICITY   = .0001733
INCLINATION    = 42.9976
RA_OF_ASC_NODE = 262.4663
ARG_OF_PERICENTER = 280.3190
MEAN_ANOMALY   = 184.0595

EPHEMERIS_TYPE = 0
CLASSIFICATION_TYPE = U
NORAD_CAT_ID   = 67642
ELEMENT_SET_NO = 999
REV_AT_EPOCH   = 419
BSTAR          = .39218E-3
MEAN_MOTION_DOT = .63809E-3
MEAN_MOTION_DDOT = 0

CCSDS_OMM_VERS = 2.0
CREATION_DATE  = 
ORIGINATOR     = 

OBJECT_NAME    = STARLINK-36533
OBJECT_ID      = 2026-020AC
CENTER_NAME    = EARTH
REF_FRAME      = TEME
TIME_SYSTEM    = UTC
MEAN_ELEMENT_THEORY = SGP/SGP4

EPOCH          = 2026-02-17T00:06:23.806944
MEAN_MOTION    = 15.76444774
ECCENTRICITY   = .00025874
INCLINATION    = 42.9967
RA_OF_ASC_NODE = 267.6878
ARG_OF_PERICENTER = 274.6350
MEAN_ANOMALY   = 85.4224

EPHEMERIS_TYPE = 0
CLASSIFICATION_TYPE = U
NORAD_CAT_ID   = 67643
ELEMENT_SET_NO = 999
REV_AT_EPOCH   = 282
BSTAR          = .34806858E-3
MEAN_MOTION_DOT = .56776E-3
MEAN_MOTION_DDOT = 0

CCSDS_OMM_VERS = 2.0
CREATION_DATE  = 
ORIGINATOR     = 

OBJECT_NAME    = STARLINK-36623
OBJECT_ID      = 2026-020AD
CENTER_NAME    = EARTH
REF_FRAME      = TEME
TIME_SYSTEM    = UTC
MEAN_ELEMENT_THEORY = SGP/SGP4

EPOCH          = 2026-02-17T15:09:20.025792
MEAN_MOTION    = 15.76575875
ECCENTRICITY   = .0002456
INCLINATION    = 42.9970
RA_OF_ASC_NODE = 263.7816
ARG_OF_PERICENTER = 265.5632
MEAN_ANOMALY   = 94.4957

EPHEMERIS_TYPE = 0
CLASSIFICATION_TYPE = U
NORAD_CAT_ID   = 67644
ELEMENT_SET_NO = 999
REV_AT_EPOCH   = 292
BSTAR          = .26669E-2
MEAN_MOTION_DOT = .462617E-2
MEAN_MOTION_DDOT = 0

